STARLINK-6167           
1 57126U 23090AB  23337.55355610  .00002991  00000+0  23667-3 0  9990
2 57126  43.0032  88.8105 0001310 270.5667  89.5025 15.02490636 25993
STARLINK-6165           
1 57127U 23090AC  23337.54356804  .00011215  00000+0  84497-3 0  9993
2 57127  43.0036  88.7338 0001461 256.1001 103.9679 15.02491612 25805
STARLINK-6163           
1 57128U 23090AD  23337.81614788 -.00002341  00000+0 -15847-3 0  9997
2 57128  43.0038  87.3385 0001033 261.8054  98.2671 15.02492595 24898
STARLINK-6170           
1 57129U 23090AE  23337.54838226  .00011437  00000+0  86159-3 0  9991
2 57129  43.0024  76.6170 0001356 249.1396 110.9301 15.02481518 25945
STARLINK-6172           
1 57130U 23090AF  23337.34523504 -.00015835  00000+0 -11608-2 0  9995
2 57130  43.0005  89.8192 0001513 194.5259 165.5540 15.02503255 25777
STARLINK-6162           
1 57131U 23090AG  23337.54505446 -.00011755  00000+0 -85743-3 0  9992
2 57131  43.0024  76.5919 0001542 303.5265  56.5430 15.02496742 25948
STARLINK-6128           
1 57132U 23090AH  23337.53801890 -.00010936  00000+0 -79646-3 0  9999
2 57132  43.0033  88.6914 0001343 244.6567 115.4136 15.02501622 25804
STARLINK-6143           
1 57133U 23090AJ  23337.73008252 -.00004385  00000+0 -31000-3 0  9996
2 57133  43.0050  75.3971 0000884 264.5638  95.5104 15.02509523 25024
STARLINK-6133           
1 57134U 23090AK  23337.54729200 -.00004438  00000+0 -31390-3 0  9990
2 57134  43.0036  76.6064 0001198 256.2241 103.8468 15.02506906 25942
STARLINK-6127           
1 57135U 23090AL  23337.52509003 -.00004317  00000+0 -30489-3 0  9990
2 57135  43.0041  76.4359 0001344 252.0396 108.0300 15.02508907 25947
STARLINK-6112           
1 57136U 23090AM  23337.54171999 -.00013816  00000+0 -10108-2 0  9991
2 57136  43.0029  76.5654 0001395 254.2242 105.8446 15.02493654 25963
STARLINK-5347           
1 57137U 23090AN  23337.52842321 -.00004937  00000+0 -35091-3 0  9997
2 57137  43.0038  76.4638 0001155 256.1252 103.9462 15.02508144 25947
STARLINK-5336           
1 57138U 23090AP  23337.34119230 -.00004532  00000+0 -32086-3 0  9996
2 57138  43.0010  77.6384 0000854 219.9013 140.1767 15.02510776 25918
STARLINK-5355           
1 57139U 23090AQ  23337.45750003 -.00004150  00000+0 -29253-3 0  9996
2 57139  43.0044  76.7856 0001368 270.0166  90.0520 15.02511053 25939
STARLINK-5354           
1 57140U 23090AR  23337.52732314 -.00004956  00000+0 -35248-3 0  9996
2 57140  43.0039  76.4533 0001013 272.9174  87.1552 15.02495176 24995
STARLINK-5357           
1 57141U 23090AS  23337.51843158 -.00003672  00000+0 -25709-3 0  9990
2 57141  43.0046  76.3834 0001229 248.7306 111.3405 15.02508458 25945
STARLINK-5361           
1 57142U 23090AT  23337.77989881 -.00003539  00000+0 -24714-3 0  9990
2 57142  43.0053  74.9061 0001166 250.6476 109.4241 15.02516357 25033
STARLINK-5358           
1 57143U 23090AU  23337.51066342 -.00004191  00000+0 -29559-3 0  9998
2 57143  43.0049  76.3261 0001287 258.7884 101.2814 15.02506585 25941
STARLINK-5150           
1 57144U 23090AV  23337.72119158 -.00003592  00000+0 -25110-3 0  9999
2 57144  43.0050  75.3273 0001167 261.8750  98.1960 15.02515491 25021
STARLINK-5768           
1 57145U 23090AW  23337.50175900  .00002822  00000+0  22422-3 0  9999
2 57145  43.0038  76.2582 0001708 246.5605 113.5057 15.02485293 25947
STARLINK-5791           
1 57146U 23090AX  23337.50844282 -.00004110  00000+0 -28956-3 0  9998
2 57146  43.0047  76.3072 0001225 243.6693 116.4023 15.02509142 25947
STARLINK-5765           
1 57147U 23090AY  23337.49732414 -.00012033  00000+0 -87807-3 0  9993
2 57147  43.0041  76.2222 0001242 275.2197  84.8503 15.02499360 26130
STARLINK-5788           
1 57148U 23090AZ  23337.75658012 -.00007399  00000+0 -53376-3 0  9997
2 57148  43.0040  74.7300 0001291 263.2070  96.8625 15.02500882 25039
STARLINK-5778           
1 57149U 23090BA  23337.57765931 -.00004929  00000+0 -35040-3 0  9991
2 57149  43.0037  49.9269 0001151 278.9566  81.1146 15.02498288 26449
STARLINK-5780           
1 57150U 23090BB  23337.50509558 -.00012107  00000+0 -88361-3 0  9998
2 57150  43.0058  76.2868 0001320 288.8042  71.2657 15.02499166 26138
STARLINK-5776           
1 57151U 23090BC  23337.50398004 -.00011600  00000+0 -84572-3 0  9998
2 57151  43.0033  76.2740 0001719 249.7255 110.3403 15.02504949 26135
STARLINK-6164           
1 57152U 23090BD  23337.50732231 -.00006779  00000+0 -48765-3 0  9998
2 57152  43.0045  76.3004 0001176 283.8104  76.2607 15.02503306 26134
STARLINK-5879           
1 57153U 23090BE  23337.59737457 -.00003950  00000+0 -27770-3 0  9994
2 57153  43.0054  63.0983 0001410 262.0112  98.0570 15.02508306 25790
STARLINK-6106           
1 57154U 23090BF  23337.63141001 -.00004424  00000+0 -31291-3 0  9994
2 57154  43.0052  75.5097 0001249 262.5211  97.5490 15.02505299 25016
STARLINK-6108           
1 57155U 23090BG  23337.74992585 -.00007011  00000+0 -50493-3 0  9998
2 57155  43.0039  74.6811 0001351 287.9338  72.1357 15.02502363 25033
STARLINK-6137           
1 57156U 23090BH  23337.55381152 -.00012166  00000+0 -88789-3 0  9996
2 57156  43.0039  75.7877 0001509 254.8710 105.1966 15.02502171 26143
STARLINK-5525           
1 57218U 23094A   23337.82703590  .00004414  00000+0  34181-3 0  9995
2 57218  43.0008 203.6744 0001278 260.9683  99.1015 15.02513906 22919
STARLINK-5520           
1 57219U 23094B   23337.75723210 -.00004548  00000+0 -32196-3 0  9993
2 57219  42.9995 204.0062 0001521 231.3726 128.6980 15.02518113 22905
STARLINK-5880           
1 57220U 23094C   23337.80816714 -.00007306  00000+0 -52669-3 0  9995
2 57220  43.0058 203.5335 0002143 278.7255  81.3345 15.02508204 22910
STARLINK-5875           
1 57221U 23094D   23337.75390571  .00001113  00000+0  97502-4 0  9992
2 57221  43.0016 203.9871 0001407 276.8936  83.1746 15.02530293 22908
STARLINK-5870           
1 57222U 23094E   23337.81482258  .00000644  00000+0  62762-4 0  9992
2 57222  43.0015 203.5824 0001413 264.9029  95.1652 15.02512668 22972
STARLINK-5519           
1 57223U 23094F   23337.81815240 -.00005580  00000+0 -39844-3 0  9994
2 57223  43.0009 203.6067 0001434 260.0569 100.0112 15.02524362 22910
STARLINK-5983           
1 57224U 23094G   23337.81149579 -.00005303  00000+0 -37800-3 0  9993
2 57224  43.0007 203.5560 0001330 258.1491 101.9202 15.02517234 22913
STARLINK-6294           
1 57225U 23094H   23337.80927390 -.00001652  00000+0 -10724-3 0  9997
2 57225  43.0016 203.5406 0001350 265.3494  94.7194 15.02529016 22974
STARLINK-6350           
1 57226U 23094J   23338.06631553 -.00001264  00000+0 -78476-4 0  9998
2 57226  43.0041 202.0256 0001396 274.2841  85.7842 15.02540748 22958
STARLINK-5996           
1 57227U 23094K   23337.80594192 -.00000311  00000+0 -79397-5 0  9993
2 57227  43.0014 203.5148 0001382 257.6017 102.4671 15.02522848 22914
STARLINK-6230           
1 57228U 23094L   23338.06298893  .00012190  00000+0  91658-3 0  9990
2 57228  43.0018 202.0021 0001099 264.7696  95.3021 15.02508695 22957
STARLINK-6233           
1 57229U 23094M   23338.06963786  .00014715  00000+0  11022-2 0  9992
2 57229  43.0018 202.0522 0001469 257.2616 102.8062 15.02532511 22957
STARLINK-6250           
1 57230U 23094N   23337.79151245 -.00003515  00000+0 -24539-3 0  9998
2 57230  43.0008 203.4071 0001290 270.3030  89.7664 15.02521551 22919
STARLINK-5840           
1 57231U 23094P   23337.76820640 -.00003785  00000+0 -26531-3 0  9991
2 57231  43.0004 203.2254 0001497 244.9304 115.1383 15.02534295 22918
STARLINK-5872           
1 57232U 23094Q   23338.09503921 -.00005548  00000+0 -39608-3 0  9997
2 57232  43.0025 201.3795 0001541 272.7116  87.3550 15.02522717 23026
STARLINK-5866           
1 57233U 23094R   23337.97430171 -.00001130  00000+0 -68623-4 0  9993
2 57233  43.0019 202.1962 0001197 277.2317  82.8389 15.02535175 22947
STARLINK-6368           
1 57234U 23094S   23337.76598925  .00006251  00000+0  47761-3 0  9999
2 57234  43.0021 203.2111 0001292 260.5893  99.4803 15.02518526 22912
STARLINK-6360           
1 57235U 23094T   23337.64412121  .00011240  00000+0  84647-3 0  9998
2 57235  43.0042 204.0170 0001526 260.5306  99.5364 15.02504528 22896
STARLINK-6315           
1 57236U 23094U   23337.77191088 -.00003378  00000+0 -23519-3 0  9995
2 57236  43.0008 191.1157 0001408 256.5143 103.5543 15.02525224 23053
STARLINK-6365           
1 57237U 23094V   23337.70505432 -.00003533  00000+0 -24672-3 0  9995
2 57237  43.0018 203.6146 0001290 238.6375 121.4341 15.02521335 22906
STARLINK-6334           
1 57238U 23094W   23337.76414198  .00003389  00000+0  26594-3 0  9992
2 57238  43.0007 191.0534 0001174 261.9491  98.1218 15.02517542 23050
STARLINK-6330           
1 57239U 23094X   23337.76377668  .00000406  00000+0  45154-4 0  9994
2 57239  43.0035 203.1945 0001406 269.4618  90.6063 15.02532327 22912
STARLINK-6351           
1 57240U 23094Y   23337.82174213 -.00004746  00000+0 -33657-3 0  9991
2 57240  43.0012 190.6237 0001328 243.4114 116.6593 15.02524970 23068
STARLINK-6349           
1 57241U 23094Z   23337.96803010  .00000952  00000+0  85618-4 0  9999
2 57241  43.0020 190.0070 0000971 245.5937 114.4804 15.02505216 23081
STARLINK-6306           
1 57242U 23094AA  23337.76525732 -.00003589  00000+0 -25073-3 0  9999
2 57242  43.0024 191.0622 0001494 264.6231  95.4441 15.02532299 23053
STARLINK-6346           
1 57243U 23094AB  23337.76747977 -.00003005  00000+0 -20746-3 0  9992
2 57243  43.0021 191.0806 0001740 272.2069  87.8574 15.02539802 23052
STARLINK-5610           
1 57244U 23094AC  23337.82398605  .00027807  00000+0  20654-2 0  9991
2 57244  43.0010 190.6411 0001537 276.0284  84.0384 15.02535290 23092
STARLINK-5587           
1 57245U 23094AD  23337.76082557  .00000860  00000+0  78786-4 0  9992
2 57245  43.0013 191.0256 0001535 199.9082 160.1701 15.02521269 23051
